{
  "type": "FeatureCollection",
  "features": [
    {
      "type": "Feature",
      "properties": {
        "norad_id": 66392,
        "name": "STARLINK-35671",
        "group": "last-30-days",
        "lat": -46.653177634148946,
        "lon": -105.33624925551071,
        "alt_km": 438.893005248422,
        "timestamp": "2025-12-03T15:48:01.918570+00:00",
        "meta_object_name": "STARLINK-35671",
        "meta_object_id": "2025-257N",
        "meta_epoch": "2025-12-03T08:00:01.999872",
        "meta_mean_motion": 15.45763859,
        "meta_eccentricity": 0.00013947,
        "meta_inclination": 53.1596,
        "meta_ra_of_asc_node": 308.7966,
        "meta_arg_of_pericenter": 94.0523,
        "meta_mean_anomaly": 191.9265,
        "meta_ephemeris_type": 0,
        "meta_classification_type": "U",
        "meta_norad_cat_id": 66392,
        "meta_element_set_no": 999,
        "meta_rev_at_epoch": 498,
        "meta_bstar": -0.045868878,
        "meta_mean_motion_dot": -0.02011123,
        "meta_mean_motion_ddot": 0,
        "tle_line1": "1 66392U 25257N   25337.33335648 -.02011123  00000+0 -45869-1 0  9996",
        "tle_line2": "2 66392  53.1596 308.7966 0001394  94.0523 191.9265 15.45763859  4983"
      },
      "geometry": {
        "type": "Point",
        "coordinates": [
          -105.33624925551071,
          -46.653177634148946
        ]
      }
    },
    {
      "type": "Feature",
      "properties": {
        "norad_id": 66393,
        "name": "STARLINK-35652",
        "group": "last-30-days",
        "lat": -42.300425635561275,
        "lon": -95.78341925139405,
        "alt_km": 424.04908322287974,
        "timestamp": "2025-12-03T15:48:01.918580+00:00",
        "meta_object_name": "STARLINK-35652",
        "meta_object_id": "2025-257P",
        "meta_epoch": "2025-12-03T06:45:29.700000",
        "meta_mean_motion": 15.49339026,
        "meta_eccentricity": 0.0001686,
        "meta_inclination": 53.1588,
        "meta_ra_of_asc_node": 309.0372,
        "meta_arg_of_pericenter": 112.5515,
        "meta_mean_anomaly": 247.5673,
        "meta_ephemeris_type": 0,
        "meta_classification_type": "U",
        "meta_norad_cat_id": 66393,
        "meta_element_set_no": 999,
        "meta_rev_at_epoch": 491,
        "meta_bstar": 0.0017132809,
        "meta_mean_motion_dot": 0.0009612,
        "meta_mean_motion_ddot": 0,
        "tle_line1": "1 66393U 25257P   25337.28159375  .00096120  00000+0  17133-2 0  9992",
        "tle_line2": "2 66393  53.1588 309.0372 0001686 112.5515 247.5673 15.49339026  4914"
      },
      "geometry": {
        "type": "Point",
        "coordinates": [
          -95.78341925139405,
          -42.300425635561275
        ]
      }
    },
    {
      "type": "Feature",
      "properties": {
        "norad_id": 66394,
        "name": "STARLINK-35672",
        "group": "last-30-days",
        "lat": -39.994964302342275,
        "lon": -91.75035729481574,
        "alt_km": 423.64629012601927,
        "timestamp": "2025-12-03T15:48:01.918589+00:00",
        "meta_object_name": "STARLINK-35672",
        "meta_object_id": "2025-257Q",
        "meta_epoch": "2025-12-03T06:44:30.391584",
        "meta_mean_motion": 15.49337477,
        "meta_eccentricity": 0.00015583,
        "meta_inclination": 53.1587,
        "meta_ra_of_asc_node": 309.0321,
        "meta_arg_of_pericenter": 87.1671,
        "meta_mean_anomaly": 272.9516,
        "meta_ephemeris_type": 0,
        "meta_classification_type": "U",
        "meta_norad_cat_id": 66394,
        "meta_element_set_no": 999,
        "meta_rev_at_epoch": 491,
        "meta_bstar": 0.0017866612,
        "meta_mean_motion_dot": 0.00100305,
        "meta_mean_motion_ddot": 0,
        "tle_line1": "1 66394U 25257Q   25337.28090731  .00100305  00000+0  17867-2 0  9998",
        "tle_line2": "2 66394  53.1587 309.0321 0001558  87.1671 272.9516 15.49337477  4912"
      },
      "geometry": {
        "type": "Point",
        "coordinates": [
          -91.75035729481574,
          -39.994964302342275
        ]
      }
    },
    {
      "type": "Feature",
      "properties": {
        "norad_id": 66395,
        "name": "STARLINK-35681",
        "group": "last-30-days",
        "lat": -38.793970593068096,
        "lon": -89.83958712975034,
        "alt_km": 423.6544720833381,
        "timestamp": "2025-12-03T15:48:01.918598+00:00",
        "meta_object_name": "STARLINK-35681",
        "meta_object_id": "2025-257R",
        "meta_epoch": "2025-12-03T06:44:00.745152",
        "meta_mean_motion": 15.49333045,
        "meta_eccentricity": 0.00015276,
        "meta_inclination": 53.1587,
        "meta_ra_of_asc_node": 309.0303,
        "meta_arg_of_pericenter": 94.4396,
        "meta_mean_anomaly": 265.6788,
        "meta_ephemeris_type": 0,
        "meta_classification_type": "U",
        "meta_norad_cat_id": 66395,
        "meta_element_set_no": 999,
        "meta_rev_at_epoch": 484,
        "meta_bstar": 0.0017110542,
        "meta_mean_motion_dot": 0.00095972,
        "meta_mean_motion_ddot": 0,
        "tle_line1": "1 66395U 25257R   25337.28056418  .00095972  00000+0  17111-2 0  9998",
        "tle_line2": "2 66395  53.1587 309.0303 0001527  94.4396 265.6788 15.49333045  4843"
      },
      "geometry": {
        "type": "Point",
        "coordinates": [
          -89.83958712975034,
          -38.793970593068096
        ]
      }
    },
    {
      "type": "Feature",
      "properties": {
        "norad_id": 66396,
        "name": "STARLINK-35669",
        "group": "last-30-days",
        "lat": -37.56176572331148,
        "lon": -87.99278562303245,
        "alt_km": 423.6223920010689,
        "timestamp": "2025-12-03T15:48:01.918606+00:00",
        "meta_object_name": "STARLINK-35669",
        "meta_object_id": "2025-257S",
        "meta_epoch": "2025-12-03T06:43:30.988992",
        "meta_mean_motion": 15.49330673,
        "meta_eccentricity": 0.00014407,
        "meta_inclination": 53.1586,
        "meta_ra_of_asc_node": 309.0274,
        "meta_arg_of_pericenter": 99.4251,
        "meta_mean_anomaly": 260.6921,
        "meta_ephemeris_type": 0,
        "meta_classification_type": "U",
        "meta_norad_cat_id": 66396,
        "meta_element_set_no": 999,
        "meta_rev_at_epoch": 491,
        "meta_bstar": 0.0013802154,
        "meta_mean_motion_dot": 0.00077135,
        "meta_mean_motion_ddot": 0,
        "tle_line1": "1 66396U 25257S   25337.28021978  .00077135  00000+0  13802-2 0  9996",
        "tle_line2": "2 66396  53.1586 309.0274 0001440  99.4251 260.6921 15.49330673  4915"
      },
      "geometry": {
        "type": "Point",
        "coordinates": [
          -87.99278562303245,
          -37.56176572331148
        ]
      }
    },
    {
      "type": "Feature",
      "properties": {
        "norad_id": 66397,
        "name": "STARLINK-35510",
        "group": "last-30-days",
        "lat": -36.26398690173269,
        "lon": -86.15382698616679,
        "alt_km": 423.130022515541,
        "timestamp": "2025-12-03T15:48:01.918617+00:00",
        "meta_object_name": "STARLINK-35510",
        "meta_object_id": "2025-257T",
        "meta_epoch": "2025-12-03T06:43:01.221600",
        "meta_mean_motion": 15.49349259,
        "meta_eccentricity": 0.00011294,
        "meta_inclination": 53.1585,
        "meta_ra_of_asc_node": 309.0257,
        "meta_arg_of_pericenter": 89.2452,
        "meta_mean_anomaly": 270.8687,
        "meta_ephemeris_type": 0,
        "meta_classification_type": "U",
        "meta_norad_cat_id": 66397,
        "meta_element_set_no": 999,
        "meta_rev_at_epoch": 491,
        "meta_bstar": 0.0021199502,
        "meta_mean_motion_dot": 0.00119443,
        "meta_mean_motion_ddot": 0,
        "tle_line1": "1 66397U 25257T   25337.27987525  .00119443  00000+0  21200-2 0  9995",
        "tle_line2": "2 66397  53.1585 309.0257 0001129  89.2452 270.8687 15.49349259  4912"
      },
      "geometry": {
        "type": "Point",
        "coordinates": [
          -86.15382698616679,
          -36.26398690173269
        ]
      }
    },
    {
      "type": "Feature",
      "properties": {
        "norad_id": 66398,
        "name": "STARLINK-35642",
        "group": "last-30-days",
        "lat": -35.00806657586094,
        "lon": -84.4670444849523,
        "alt_km": 423.35528795249866,
        "timestamp": "2025-12-03T15:48:01.918626+00:00",
        "meta_object_name": "STARLINK-35642",
        "meta_object_id": "2025-257U",
        "meta_epoch": "2025-12-03T06:42:31.631328",
        "meta_mean_motion": 15.49329756,
        "meta_eccentricity": 0.00012816,
        "meta_inclination": 53.1587,
        "meta_ra_of_asc_node": 309.0228,
        "meta_arg_of_pericenter": 97.3453,
        "meta_mean_anomaly": 262.7702,
        "meta_ephemeris_type": 0,
        "meta_classification_type": "U",
        "meta_norad_cat_id": 66398,
        "meta_element_set_no": 999,
        "meta_rev_at_epoch": 491,
        "meta_bstar": 0.0013505496,
        "meta_mean_motion_dot": 0.00075448,
        "meta_mean_motion_ddot": 0,
        "tle_line1": "1 66398U 25257U   25337.27953277  .00075448  00000+0  13505-2 0  9998",
        "tle_line2": "2 66398  53.1587 309.0228 0001281  97.3453 262.7702 15.49329756  4911"
      },
      "geometry": {
        "type": "Point",
        "coordinates": [
          -84.4670444849523,
          -35.00806657586094
        ]
      }
    }
  ]
}